GSAT0101 (GALILEO-PFM)  
1 37846U 11060A   26044.07892891 -.00000089  00000+0  00000+0 0  9992
2 37846  57.0350 345.1302 0003943 351.3953   8.5963  1.70475771 89003
GSAT0102 (GALILEO-FM2)  
1 37847U 11060B   26044.31150892 -.00000089  00000+0  00000+0 0  9998
2 37847  57.0358 345.1242 0005489 335.2973 212.9507  1.70475991 89015
GSAT0103 (GALILEO-FM3)  
1 38857U 12055A   26041.18640101 -.00000022  00000+0  00000+0 0  9991
2 38857  55.7248 105.0317 0004736 280.5220  79.4828  1.70473468 82840
GSAT0201 (GALILEO 5)    
1 40128U 14050A   26043.91125448  .00000007  00000+0  00000+0 0  9999
2 40128  49.0074 278.5224 1654731 174.6183 187.4509  1.85520133 76014
GSAT0202 (GALILEO 6)    
1 40129U 14050B   26044.70625602  .00000014  00000+0  00000+0 0  9993
2 40129  49.0231 277.5741 1655923 175.3687 186.4206  1.85520766 78190
GSAT0203 (GALILEO 7)    
1 40544U 15017A   26043.27033379 -.00000092  00000+0  00000+0 0  9990
2 40544  56.8292 345.0034 0006023 287.7240  72.2087  1.70475858 67072
GSAT0204 (GALILEO 8)    
1 40545U 15017B   26044.11252897 -.00000089  00000+0  00000+0 0  9999
2 40545  56.8347 344.9989 0004627 285.4462  74.5015  1.70475677 30132
GSAT0205 (GALILEO 9)    
1 40889U 15045A   26043.95434207  .00000078  00000+0  00000+0 0  9996
2 40889  53.6403 225.6057 0359599  59.9658 303.5577  1.67410800 64211
GSAT0206 (GALILEO 10)   
1 40890U 15045B   26042.92836421  .00000079  00000+0  00000+0 0  9999
2 40890  54.9856 225.0601 0004219  49.0134 311.0272  1.70473679 64902
GSAT0209 (GALILEO 12)   
1 41174U 15079A   26041.92327941 -.00000020  00000+0  00000+0 0  9990
2 41174  55.7457 104.7263 0004014 324.2103  35.8222  1.70474729 62628
GSAT0208 (GALILEO 11)   
1 41175U 15079B   26044.48983284 -.00000005  00000+0  00000+0 0  9996
2 41175  55.7460 104.6527 0004196 317.8141  42.2233  1.70474514 63083
GSAT0211 (GALILEO 14)   
1 41549U 16030A   26045.20046078  .00000079  00000+0  00000+0 0  9991
2 41549  55.1351 225.0743 0003938  27.4838 332.5352  1.70473690 60571
GSAT0210 (GALILEO 13)   
1 41550U 16030B   26044.87117036  .00000080  00000+0  00000+0 0  9990
2 41550  55.1350 225.0815 0000875 179.4055 180.5942  1.70473901 60568
GSAT0207 (GALILEO 15)   
1 41859U 16069A   26044.56290580 -.00000005  00000+0  00000+0 0  9994
2 41859  55.4173 104.5079 0004404 307.9683  52.0618  1.70474642 57298
GSAT0212 (GALILEO 16)   
1 41860U 16069B   26043.82989632 -.00000010  00000+0  00000+0 0  9993
2 41860  55.4146 104.5234 0003092 338.2854  21.7674  1.70474826 57538
GSAT0213 (GALILEO 17)   
1 41861U 16069C   26044.78395776 -.00000003  00000+0  00000+0 0  9992
2 41861  55.4174 104.5047 0004844 289.2270  70.7918  1.70474999 57418
GSAT0214 (GALILEO 18)   
1 41862U 16069D   26044.34341317 -.00000006  00000+0  00000+0 0  9990
2 41862  55.4157 104.5098 0003683 292.8177  67.2120  1.70474993 57535
GSAT0215 (GALILEO 19)   
1 43055U 17079A   26043.66035110  .00000080  00000+0  00000+0 0  9994
2 43055  55.1133 224.9303 0000905  26.6649 333.3428  1.70474427 50868
GSAT0216 (GALILEO 20)   
1 43056U 17079B   26045.12474044  .00000079  00000+0  00000+0 0  9999
2 43056  55.1115 224.8899 0001658 329.1508  30.8375  1.70474531 50900
GSAT0217 (GALILEO 21)   
1 43057U 17079C   26042.99916920  .00000080  00000+0  00000+0 0  9998
2 43057  55.1125 224.9463 0002291   2.9574 357.0478  1.70474490 50859
GSAT0218 (GALILEO 22)   
1 43058U 17079D   26044.97895026  .00000080  00000+0  00000+0 0  9992
2 43058  55.1117 224.8895 0001875 315.4505  44.5331  1.70474439 50918
GSAT0221 (GALILEO 25)   
1 43564U 18060A   26038.42957114 -.00000103  00000+0  00000+0 0  9992
2 43564  57.2120 345.2871 0006159 301.0112  58.9243  1.70475591 46954
GSAT0222 (GALILEO 26)   
1 43565U 18060B   26039.82218180 -.00000101  00000+0  00000+0 0  9999
2 43565  57.2150 345.2529 0005003 281.1555  78.7858  1.70475319 47023
GSAT0219 (GALILEO 23)   
1 43566U 18060C   26044.14935514 -.00000089  00000+0  00000+0 0  9993
2 43566  57.2131 345.1378 0005514 308.1790  51.7697  1.70475552 47078
GSAT0220 (GALILEO 24)   
1 43567U 18060D   26042.02395110 -.00000095  00000+0  00000+0 0  9998
2 43567  57.2135 345.1953 0005618 304.9829  54.9624  1.70475730 47022
GSAT0223 (GALILEO 27)   
1 49809U 21116A   26044.51181404 -.00000088  00000+0  00000+0 0  9996
2 49809  57.2018 345.0186 0002989 276.3879 261.1896  1.70475746 26071
GSAT0224 (GALILEO 28)   
1 49810U 21116B   26041.98275014 -.00000096  00000+0  00000+0 0  9996
2 49810  57.2033 345.0853 0002536 288.2469 249.7913  1.70475821 26050
GSAT0225 (GALILEO 29)   
1 59598U 24079A   26045.23712382 -.00000001  00000+0  00000+0 0  9993
2 59598  55.0371 104.5169 0002482 241.3793 126.7742  1.70475152 11227
GSAT0227 (GALILEO 30)   
1 59600U 24079C   26044.23419502 -.00000008  00000+0  00000+0 0  9991
2 59600  55.0324 104.5436 0000936 117.9196 242.1575  1.70475047 11256
GSAT0232 (GALILEO 32)   
1 61182U 24167A   26044.50000000  .00000080  00000+0  00000+0 0  9995
2 61182  55.1235 224.2956 0003054 192.8867 186.0472  1.70474215  8191
GSAT0226 (GALILEO 31)   
1 61183U 24167B   26045.49952878  .00000079  00000+0  00000+0 0  9992
2 61183  55.2233 224.6835 0001738 118.3687 245.2243  1.70474139  8763
GSAT0233 (GALILEO 33)   
1 67160U 25302A   26044.50000000 -.00000008  00000+0  00000+0 0  9990
2 67160  54.3935 105.2952 0003011 207.0582 359.4109  1.70474578    20
GSAT0234 (GALILEO 34)   
1 67162U 25302C   26044.50000000 -.00000008  00000+0  00000+0 0  9992
2 67162  54.3967 105.2938 0003081 266.8423 119.7309  1.70475065   127
